RESOURCESAT-2A          
1 41877U 16074A   26063.83431843  .00000156  00000+0  91534-4 0  9993
2 41877  98.7615 138.1605 0002679  46.9774 313.1627 14.21598007479471
CARTOSAT-2D             
1 41948U 17008A   26063.89690903  .00005112  00000+0  24520-3 0  9997
2 41948  97.4244 125.0795 0004509 235.3880 124.6930 15.19325071501740
SENTINEL-2B             
1 42063U 17013A   26063.80189884  .00000147  00000+0  72543-4 0  9996
2 42063  98.5669 140.0668 0001093  93.4799 266.6509 14.30817710469712
CARTOSAT-2E             
1 42767U 17036C   26063.84807091  .00005411  00000+0  25981-3 0  9995
2 42767  97.4407 125.3000 0002888 316.3109  43.7896 15.19264517482304
FORMOSAT-5              
1 42920U 17049A   26063.77595574  .00000320  00000+0  92236-4 0  9994
2 42920  98.2320 141.3900 0011933  50.5504 309.6745 14.50818393451531
SENTINEL-5P             
1 42969U 17064A   26063.45922626  .00000120  00000+0  77682-4 0  9997
2 42969  98.7876   6.3590 0001100  80.6648 279.4652 14.19547696434709
SKYSAT-C11              
1 42987U 17068A   26063.81727345  .00035372  00000+0  58724-3 0  9994
2 42987  97.4195 208.6421 0000737  86.1386 273.9951 15.52029456467023
SKYSAT-C10              
1 42988U 17068B   26063.31269518  .00017986  00000+0  57448-3 0  9996
2 42988  97.4329 199.3999 0001143  90.4216 269.7157 15.32525278466280
SKYSAT-C9               
1 42989U 17068C   26063.38073272  .00023900  00000+0  62538-3 0  9993
2 42989  97.4254 199.4601 0009705 150.2472 209.9327 15.38684553466621
SKYSAT-C8               
1 42990U 17068D   26063.82603329  .00007418  00000+0  22360-3 0  9991
2 42990  97.4337 199.3361 0001326  99.1187 261.0206 15.34611478466292
SKYSAT-C7               
1 42991U 17068E   26063.62033796  .00017354  00000+0  51974-3 0  9998
2 42991  97.4359 200.1125 0007410 119.3141 240.8843 15.34558146466329
SKYSAT-C6               
1 42992U 17068F   26063.67480056  .00015584  00000+0  49702-3 0  9998
2 42992  97.4394 200.4668 0003571 123.8734 236.2848 15.32599433466300
CARTOSAT-2F             
1 43111U 18004A   26063.81419583  .00005945  00000+0  28561-3 0  9996
2 43111  97.4172 125.0615 0000506 251.3316 108.7864 15.19206158451488
GAOFEN-1 02             
1 43259U 18031A   26063.86362148  .00001183  00000+0  17736-3 0  9990
2 43259  98.0657 126.6226 0002696   2.7805 357.3419 14.76470789427301
GAOFEN-1 03             
1 43260U 18031B   26063.84176306  .00001271  00000+0  19003-3 0  9996
2 43260  98.0644 126.4697 0003932  63.6877 296.4736 14.76467282427295
GAOFEN-1 04             
1 43262U 18031D   26063.88522875  .00001325  00000+0  19777-3 0  9996
2 43262  98.0660 126.6918 0002097  87.9533 272.1917 14.76469072427293
SENTINEL-3B             
1 43437U 18039A   26063.20521182  .00000191  00000+0  96845-4 0  9996
2 43437  98.6239 132.2188 0000863 127.4715 232.6544 14.26742576409158
