[{"OBJECT_NAME":"RESOURCESAT-2A","OBJECT_ID":"2016-074A","EPOCH":"2026-03-04T20:01:25.112352","MEAN_MOTION":14.21598007,"ECCENTRICITY":0.0002679,"INCLINATION":98.7615,"RA_OF_ASC_NODE":138.1605,"ARG_OF_PERICENTER":46.9774,"MEAN_ANOMALY":313.1627,"EPHEMERIS_TYPE":0,"CLASSIFICATION_TYPE":"U","NORAD_CAT_ID":41877,"ELEMENT_SET_NO":999,"REV_AT_EPOCH":47947,"BSTAR":9.1534e-5,"MEAN_MOTION_DOT":1.56e-6,"MEAN_MOTION_DDOT":0},{"OBJECT_NAME":"CARTOSAT-2D","OBJECT_ID":"2017-008A","EPOCH":"2026-03-04T21:31:32.940192","MEAN_MOTION":15.19325071,"ECCENTRICITY":0.0004509,"INCLINATION":97.4244,"RA_OF_ASC_NODE":125.0795,"ARG_OF_PERICENTER":235.388,"MEAN_ANOMALY":124.693,"EPHEMERIS_TYPE":0,"CLASSIFICATION_TYPE":"U","NORAD_CAT_ID":41948,"ELEMENT_SET_NO":999,"REV_AT_EPOCH":50174,"BSTAR":0.0002452,"MEAN_MOTION_DOT":5.112e-5,"MEAN_MOTION_DDOT":0},{"OBJECT_NAME":"SENTINEL-2B","OBJECT_ID":"2017-013A","EPOCH":"2026-03-04T19:14:44.059776","MEAN_MOTION":14.3081771,"ECCENTRICITY":0.0001093,"INCLINATION":98.5669,"RA_OF_ASC_NODE":140.0668,"ARG_OF_PERICENTER":93.4799,"MEAN_ANOMALY":266.6509,"EPHEMERIS_TYPE":0,"CLASSIFICATION_TYPE":"U","NORAD_CAT_ID":42063,"ELEMENT_SET_NO":999,"REV_AT_EPOCH":46971,"BSTAR":7.2543e-5,"MEAN_MOTION_DOT":1.47e-6,"MEAN_MOTION_DDOT":0},{"OBJECT_NAME":"CARTOSAT-2E","OBJECT_ID":"2017-036C","EPOCH":"2026-03-04T20:21:13.326624","MEAN_MOTION":15.19264517,"ECCENTRICITY":0.0002888,"INCLINATION":97.4407,"RA_OF_ASC_NODE":125.3,"ARG_OF_PERICENTER":316.3109,"MEAN_ANOMALY":43.7896,"EPHEMERIS_TYPE":0,"CLASSIFICATION_TYPE":"U","NORAD_CAT_ID":42767,"ELEMENT_SET_NO":999,"REV_AT_EPOCH":48230,"BSTAR":0.00025981,"MEAN_MOTION_DOT":5.411e-5,"MEAN_MOTION_DDOT":0},{"OBJECT_NAME":"FORMOSAT-5","OBJECT_ID":"2017-049A","EPOCH":"2026-03-04T18:37:22.575936","MEAN_MOTION":14.50818393,"ECCENTRICITY":0.0011933,"INCLINATION":98.232,"RA_OF_ASC_NODE":141.39,"ARG_OF_PERICENTER":50.5504,"MEAN_ANOMALY":309.6745,"EPHEMERIS_TYPE":0,"CLASSIFICATION_TYPE":"U","NORAD_CAT_ID":42920,"ELEMENT_SET_NO":999,"REV_AT_EPOCH":45153,"BSTAR":9.2236e-5,"MEAN_MOTION_DOT":3.2e-6,"MEAN_MOTION_DDOT":0},{"OBJECT_NAME":"SENTINEL-5P","OBJECT_ID":"2017-064A","EPOCH":"2026-03-04T11:01:17.148864","MEAN_MOTION":14.19547696,"ECCENTRICITY":0.00011,"INCLINATION":98.7876,"RA_OF_ASC_NODE":6.359,"ARG_OF_PERICENTER":80.6648,"MEAN_ANOMALY":279.4652,"EPHEMERIS_TYPE":0,"CLASSIFICATION_TYPE":"U","NORAD_CAT_ID":42969,"ELEMENT_SET_NO":999,"REV_AT_EPOCH":43470,"BSTAR":7.7681661e-5,"MEAN_MOTION_DOT":1.2e-6,"MEAN_MOTION_DDOT":0},{"OBJECT_NAME":"SKYSAT-C11","OBJECT_ID":"2017-068A","EPOCH":"2026-03-04T19:36:52.426080","MEAN_MOTION":15.52029456,"ECCENTRICITY":7.37e-5,"INCLINATION":97.4195,"RA_OF_ASC_NODE":208.6421,"ARG_OF_PERICENTER":86.1386,"MEAN_ANOMALY":273.9951,"EPHEMERIS_TYPE":0,"CLASSIFICATION_TYPE":"U","NORAD_CAT_ID":42987,"ELEMENT_SET_NO":999,"REV_AT_EPOCH":46702,"BSTAR":0.00058724,"MEAN_MOTION_DOT":0.00035372,"MEAN_MOTION_DDOT":0},{"OBJECT_NAME":"SKYSAT-C10","OBJECT_ID":"2017-068B","EPOCH":"2026-03-04T07:30:16.863552","MEAN_MOTION":15.32525278,"ECCENTRICITY":0.00011438,"INCLINATION":97.4329,"RA_OF_ASC_NODE":199.3999,"ARG_OF_PERICENTER":90.4216,"MEAN_ANOMALY":269.7157,"EPHEMERIS_TYPE":0,"CLASSIFICATION_TYPE":"U","NORAD_CAT_ID":42988,"ELEMENT_SET_NO":999,"REV_AT_EPOCH":46628,"BSTAR":0.00057448426,"MEAN_MOTION_DOT":0.00017986,"MEAN_MOTION_DDOT":0},{"OBJECT_NAME":"SKYSAT-C9","OBJECT_ID":"2017-068C","EPOCH":"2026-03-04T09:08:15.307008","MEAN_MOTION":15.38684553,"ECCENTRICITY":0.00097051,"INCLINATION":97.4254,"RA_OF_ASC_NODE":199.4601,"ARG_OF_PERICENTER":150.2472,"MEAN_ANOMALY":209.9327,"EPHEMERIS_TYPE":0,"CLASSIFICATION_TYPE":"U","NORAD_CAT_ID":42989,"ELEMENT_SET_NO":999,"REV_AT_EPOCH":46662,"BSTAR":0.00062538401,"MEAN_MOTION_DOT":0.000239,"MEAN_MOTION_DDOT":0},{"OBJECT_NAME":"SKYSAT-C8","OBJECT_ID":"2017-068D","EPOCH":"2026-03-04T19:49:29.276256","MEAN_MOTION":15.34611478,"ECCENTRICITY":0.0001326,"INCLINATION":97.4337,"RA_OF_ASC_NODE":199.3361,"ARG_OF_PERICENTER":99.1187,"MEAN_ANOMALY":261.0206,"EPHEMERIS_TYPE":0,"CLASSIFICATION_TYPE":"U","NORAD_CAT_ID":42990,"ELEMENT_SET_NO":999,"REV_AT_EPOCH":46629,"BSTAR":0.0002236,"MEAN_MOTION_DOT":7.418e-5,"MEAN_MOTION_DDOT":0},{"OBJECT_NAME":"SKYSAT-C7","OBJECT_ID":"2017-068E","EPOCH":"2026-03-04T14:53:17.199744","MEAN_MOTION":15.34558146,"ECCENTRICITY":0.000741,"INCLINATION":97.4359,"RA_OF_ASC_NODE":200.1125,"ARG_OF_PERICENTER":119.3141,"MEAN_ANOMALY":240.8843,"EPHEMERIS_TYPE":0,"CLASSIFICATION_TYPE":"U","NORAD_CAT_ID":42991,"ELEMENT_SET_NO":999,"REV_AT_EPOCH":46632,"BSTAR":0.00051974,"MEAN_MOTION_DOT":0.00017354,"MEAN_MOTION_DDOT":0},{"OBJECT_NAME":"SKYSAT-C6","OBJECT_ID":"2017-068F","EPOCH":"2026-03-04T16:11:42.768384","MEAN_MOTION":15.32599433,"ECCENTRICITY":0.0003571,"INCLINATION":97.4394,"RA_OF_ASC_NODE":200.4668,"ARG_OF_PERICENTER":123.8734,"MEAN_ANOMALY":236.2848,"EPHEMERIS_TYPE":0,"CLASSIFICATION_TYPE":"U","NORAD_CAT_ID":42992,"ELEMENT_SET_NO":999,"REV_AT_EPOCH":46630,"BSTAR":0.00049702,"MEAN_MOTION_DOT":0.00015584,"MEAN_MOTION_DDOT":0},{"OBJECT_NAME":"CARTOSAT-2F","OBJECT_ID":"2018-004A","EPOCH":"2026-03-04T19:32:26.519712","MEAN_MOTION":15.19206158,"ECCENTRICITY":5.06e-5,"INCLINATION":97.4172,"RA_OF_ASC_NODE":125.0615,"ARG_OF_PERICENTER":251.3316,"MEAN_ANOMALY":108.7864,"EPHEMERIS_TYPE":0,"CLASSIFICATION_TYPE":"U","NORAD_CAT_ID":43111,"ELEMENT_SET_NO":999,"REV_AT_EPOCH":45148,"BSTAR":0.00028561,"MEAN_MOTION_DOT":5.945e-5,"MEAN_MOTION_DDOT":0},{"OBJECT_NAME":"GAOFEN-1 02","OBJECT_ID":"2018-031A","EPOCH":"2026-03-04T20:43:36.895872","MEAN_MOTION":14.76470789,"ECCENTRICITY":0.0002696,"INCLINATION":98.0657,"RA_OF_ASC_NODE":126.6226,"ARG_OF_PERICENTER":2.7805,"MEAN_ANOMALY":357.3419,"EPHEMERIS_TYPE":0,"CLASSIFICATION_TYPE":"U","NORAD_CAT_ID":43259,"ELEMENT_SET_NO":999,"REV_AT_EPOCH":42730,"BSTAR":0.00017736,"MEAN_MOTION_DOT":1.183e-5,"MEAN_MOTION_DDOT":0},{"OBJECT_NAME":"GAOFEN-1 03","OBJECT_ID":"2018-031B","EPOCH":"2026-03-04T20:12:08.328384","MEAN_MOTION":14.76467282,"ECCENTRICITY":0.0003932,"INCLINATION":98.0644,"RA_OF_ASC_NODE":126.4697,"ARG_OF_PERICENTER":63.6877,"MEAN_ANOMALY":296.4736,"EPHEMERIS_TYPE":0,"CLASSIFICATION_TYPE":"U","NORAD_CAT_ID":43260,"ELEMENT_SET_NO":999,"REV_AT_EPOCH":42729,"BSTAR":0.00019003,"MEAN_MOTION_DOT":1.271e-5,"MEAN_MOTION_DDOT":0},{"OBJECT_NAME":"GAOFEN-1 04","OBJECT_ID":"2018-031D","EPOCH":"2026-03-04T21:14:43.764000","MEAN_MOTION":14.76469072,"ECCENTRICITY":0.0002097,"INCLINATION":98.066,"RA_OF_ASC_NODE":126.6918,"ARG_OF_PERICENTER":87.9533,"MEAN_ANOMALY":272.1917,"EPHEMERIS_TYPE":0,"CLASSIFICATION_TYPE":"U","NORAD_CAT_ID":43262,"ELEMENT_SET_NO":999,"REV_AT_EPOCH":42729,"BSTAR":0.00019777,"MEAN_MOTION_DOT":1.325e-5,"MEAN_MOTION_DDOT":0},{"OBJECT_NAME":"SENTINEL-3B","OBJECT_ID":"2018-039A","EPOCH":"2026-03-04T04:55:30.301248","MEAN_MOTION":14.26742576,"ECCENTRICITY":8.631e-5,"INCLINATION":98.6239,"RA_OF_ASC_NODE":132.2188,"ARG_OF_PERICENTER":127.4715,"MEAN_ANOMALY":232.6544,"EPHEMERIS_TYPE":0,"CLASSIFICATION_TYPE":"U","NORAD_CAT_ID":43437,"ELEMENT_SET_NO":999,"REV_AT_EPOCH":40915,"BSTAR":9.6844749e-5,"MEAN_MOTION_DOT":1.91e-6,"MEAN_MOTION_DDOT":0}]
